CCSDS_OMM_VERS = 2.0
CREATION_DATE  = 
ORIGINATOR     = 

OBJECT_NAME    = STARLINK-36357
OBJECT_ID      = 2026-038C
CENTER_NAME    = EARTH
REF_FRAME      = TEME
TIME_SYSTEM    = UTC
MEAN_ELEMENT_THEORY = SGP/SGP4

EPOCH          = 2026-03-14T06:00:02.000160
MEAN_MOTION    = 15.75107898
ECCENTRICITY   = .00009505
INCLINATION    = 97.2852
RA_OF_ASC_NODE = 83.7863
ARG_OF_PERICENTER = 135.8061
MEAN_ANOMALY   = 276.0482

EPHEMERIS_TYPE = 0
CLASSIFICATION_TYPE = U
NORAD_CAT_ID   = 67963
ELEMENT_SET_NO = 999
REV_AT_EPOCH   = 393
BSTAR          = .69292494E-3
MEAN_MOTION_DOT = .104121E-2
MEAN_MOTION_DDOT = 0

CCSDS_OMM_VERS = 2.0
CREATION_DATE  = 
ORIGINATOR     = 

OBJECT_NAME    = STARLINK-36349
OBJECT_ID      = 2026-038D
CENTER_NAME    = EARTH
REF_FRAME      = TEME
TIME_SYSTEM    = UTC
MEAN_ELEMENT_THEORY = SGP/SGP4

EPOCH          = 2026-03-14T06:00:02.000160
MEAN_MOTION    = 15.75102937
ECCENTRICITY   = .00012823
INCLINATION    = 97.2848
RA_OF_ASC_NODE = 83.7827
ARG_OF_PERICENTER = 89.7742
MEAN_ANOMALY   = 314.0706

EPHEMERIS_TYPE = 0
CLASSIFICATION_TYPE = U
NORAD_CAT_ID   = 67964
ELEMENT_SET_NO = 999
REV_AT_EPOCH   = 393
BSTAR          = .11901058E-2
MEAN_MOTION_DOT = .180503E-2
MEAN_MOTION_DDOT = 0

CCSDS_OMM_VERS = 2.0
CREATION_DATE  = 
ORIGINATOR     = 

OBJECT_NAME    = STARLINK-36806
OBJECT_ID      = 2026-038E
CENTER_NAME    = EARTH
REF_FRAME      = TEME
TIME_SYSTEM    = UTC
MEAN_ELEMENT_THEORY = SGP/SGP4

EPOCH          = 2026-03-14T06:00:02.000160
MEAN_MOTION    = 15.75131484
ECCENTRICITY   = .00011577
INCLINATION    = 97.2849
RA_OF_ASC_NODE = 83.7876
ARG_OF_PERICENTER = 115.1314
MEAN_ANOMALY   = 302.7065

EPHEMERIS_TYPE = 0
CLASSIFICATION_TYPE = U
NORAD_CAT_ID   = 67965
ELEMENT_SET_NO = 999
REV_AT_EPOCH   = 393
BSTAR          = .57318691E-3
MEAN_MOTION_DOT = .86011E-3
MEAN_MOTION_DDOT = 0

CCSDS_OMM_VERS = 2.0
CREATION_DATE  = 
ORIGINATOR     = 

OBJECT_NAME    = STARLINK-36820
OBJECT_ID      = 2026-038F
CENTER_NAME    = EARTH
REF_FRAME      = TEME
TIME_SYSTEM    = UTC
MEAN_ELEMENT_THEORY = SGP/SGP4

EPOCH          = 2026-03-14T06:00:02.000160
MEAN_MOTION    = 15.75164471
ECCENTRICITY   = .00011902
INCLINATION    = 97.2851
RA_OF_ASC_NODE = 83.7904
ARG_OF_PERICENTER = 94.0296
MEAN_ANOMALY   = 329.8053

EPHEMERIS_TYPE = 0
CLASSIFICATION_TYPE = U
NORAD_CAT_ID   = 67966
ELEMENT_SET_NO = 999
REV_AT_EPOCH   = 393
BSTAR          = .10791115E-3
MEAN_MOTION_DOT = .15978E-3
MEAN_MOTION_DDOT = 0

CCSDS_OMM_VERS = 2.0
CREATION_DATE  = 
ORIGINATOR     = 

OBJECT_NAME    = STARLINK-36819
OBJECT_ID      = 2026-038G
CENTER_NAME    = EARTH
REF_FRAME      = TEME
TIME_SYSTEM    = UTC
MEAN_ELEMENT_THEORY = SGP/SGP4

EPOCH          = 2026-03-14T06:00:02.000160
MEAN_MOTION    = 15.71023670
ECCENTRICITY   = .00014338
INCLINATION    = 97.2821
RA_OF_ASC_NODE = 83.7900
ARG_OF_PERICENTER = 75.9412
MEAN_ANOMALY   = 347.6724

EPHEMERIS_TYPE = 0
CLASSIFICATION_TYPE = U
NORAD_CAT_ID   = 67967
ELEMENT_SET_NO = 999
REV_AT_EPOCH   = 393
BSTAR          = -.21604724E-1
MEAN_MOTION_DOT = -.2331034E-1
MEAN_MOTION_DDOT = 0

CCSDS_OMM_VERS = 2.0
CREATION_DATE  = 
ORIGINATOR     = 

OBJECT_NAME    = STARLINK-36812
OBJECT_ID      = 2026-038H
CENTER_NAME    = EARTH
REF_FRAME      = TEME
TIME_SYSTEM    = UTC
MEAN_ELEMENT_THEORY = SGP/SGP4

EPOCH          = 2026-03-14T06:00:02.000160
MEAN_MOTION    = 15.75150148
ECCENTRICITY   = .0001085
INCLINATION    = 97.2848
RA_OF_ASC_NODE = 83.7939
ARG_OF_PERICENTER = 109.0268
MEAN_ANOMALY   = 326.8083

EPHEMERIS_TYPE = 0
CLASSIFICATION_TYPE = U
NORAD_CAT_ID   = 67968
ELEMENT_SET_NO = 999
REV_AT_EPOCH   = 393
BSTAR          = .2492454E-3
MEAN_MOTION_DOT = .37144E-3
MEAN_MOTION_DDOT = 0

CCSDS_OMM_VERS = 2.0
CREATION_DATE  = 
ORIGINATOR     = 

OBJECT_NAME    = STARLINK-36709
OBJECT_ID      = 2026-038J
CENTER_NAME    = EARTH
REF_FRAME      = TEME
TIME_SYSTEM    = UTC
MEAN_ELEMENT_THEORY = SGP/SGP4

EPOCH          = 2026-03-14T06:00:02.000160
MEAN_MOTION    = 15.75125930
ECCENTRICITY   = .00012725
INCLINATION    = 97.2851
RA_OF_ASC_NODE = 83.7999
ARG_OF_PERICENTER = 77.9243
MEAN_ANOMALY   = 11.9262

EPHEMERIS_TYPE = 0
CLASSIFICATION_TYPE = U
NORAD_CAT_ID   = 67969
ELEMENT_SET_NO = 999
REV_AT_EPOCH   = 393
BSTAR          = .5430353E-3
MEAN_MOTION_DOT = .81417E-3
MEAN_MOTION_DDOT = 0

CCSDS_OMM_VERS = 2.0
CREATION_DATE  = 
ORIGINATOR     = 

OBJECT_NAME    = STARLINK-36319
OBJECT_ID      = 2026-038K
CENTER_NAME    = EARTH
REF_FRAME      = TEME
TIME_SYSTEM    = UTC
MEAN_ELEMENT_THEORY = SGP/SGP4

EPOCH          = 2026-03-14T06:00:02.000160
MEAN_MOTION    = 15.75166808
ECCENTRICITY   = .00012081
INCLINATION    = 97.2832
RA_OF_ASC_NODE = 83.7968
ARG_OF_PERICENTER = 104.3488
MEAN_ANOMALY   = 339.4574

EPHEMERIS_TYPE = 0
CLASSIFICATION_TYPE = U
NORAD_CAT_ID   = 67970
ELEMENT_SET_NO = 999
REV_AT_EPOCH   = 390
BSTAR          = .39467894E-3
MEAN_MOTION_DOT = .59088E-3
MEAN_MOTION_DDOT = 0

CCSDS_OMM_VERS = 2.0
CREATION_DATE  = 
ORIGINATOR     = 

OBJECT_NAME    = STARLINK-36710
OBJECT_ID      = 2026-038L
CENTER_NAME    = EARTH
REF_FRAME      = TEME
TIME_SYSTEM    = UTC
MEAN_ELEMENT_THEORY = SGP/SGP4

EPOCH          = 2026-03-14T06:00:02.000160
MEAN_MOTION    = 15.75147074
ECCENTRICITY   = .00011956
INCLINATION    = 97.2847
RA_OF_ASC_NODE = 83.8044
ARG_OF_PERICENTER = 87.2427
MEAN_ANOMALY   = 12.5758

EPHEMERIS_TYPE = 0
CLASSIFICATION_TYPE = U
NORAD_CAT_ID   = 67971
ELEMENT_SET_NO = 999
REV_AT_EPOCH   = 393
BSTAR          = .54232851E-3
MEAN_MOTION_DOT = .81384E-3
MEAN_MOTION_DDOT = 0

CCSDS_OMM_VERS = 2.0
CREATION_DATE  = 
ORIGINATOR     = 

OBJECT_NAME    = STARLINK-36894
OBJECT_ID      = 2026-038M
CENTER_NAME    = EARTH
REF_FRAME      = TEME
TIME_SYSTEM    = UTC
MEAN_ELEMENT_THEORY = SGP/SGP4

EPOCH          = 2026-03-14T06:00:02.000160
MEAN_MOTION    = 15.75156427
ECCENTRICITY   = .00011077
INCLINATION    = 97.2821
RA_OF_ASC_NODE = 83.8052
ARG_OF_PERICENTER = 93.5370
MEAN_ANOMALY   = 12.2933

EPHEMERIS_TYPE = 0
CLASSIFICATION_TYPE = U
NORAD_CAT_ID   = 67972
ELEMENT_SET_NO = 999
REV_AT_EPOCH   = 393
BSTAR          = .27041271E-3
MEAN_MOTION_DOT = .40335E-3
MEAN_MOTION_DDOT = 0

CCSDS_OMM_VERS = 2.0
CREATION_DATE  = 
ORIGINATOR     = 

OBJECT_NAME    = STARLINK-36900
OBJECT_ID      = 2026-038N
CENTER_NAME    = EARTH
REF_FRAME      = TEME
TIME_SYSTEM    = UTC
MEAN_ELEMENT_THEORY = SGP/SGP4

EPOCH          = 2026-03-14T06:00:02.000160
MEAN_MOTION    = 15.75665904
ECCENTRICITY   = .0001829
INCLINATION    = 97.2814
RA_OF_ASC_NODE = 83.8095
ARG_OF_PERICENTER = 79.5411
MEAN_ANOMALY   = 38.2056

EPHEMERIS_TYPE = 0
CLASSIFICATION_TYPE = U
NORAD_CAT_ID   = 67973
ELEMENT_SET_NO = 999
REV_AT_EPOCH   = 393
BSTAR          = -.14979546E-1
MEAN_MOTION_DOT = -.1975986E-1
MEAN_MOTION_DDOT = 0

CCSDS_OMM_VERS = 2.0
CREATION_DATE  = 
ORIGINATOR     = 

OBJECT_NAME    = STARLINK-36901
OBJECT_ID      = 2026-038P
CENTER_NAME    = EARTH
REF_FRAME      = TEME
TIME_SYSTEM    = UTC
MEAN_ELEMENT_THEORY = SGP/SGP4

EPOCH          = 2026-03-14T06:00:02.000160
MEAN_MOTION    = 15.75155953
ECCENTRICITY   = .00011702
INCLINATION    = 97.2821
RA_OF_ASC_NODE = 83.8074
ARG_OF_PERICENTER = 96.0481
MEAN_ANOMALY   = 15.7720

EPHEMERIS_TYPE = 0
CLASSIFICATION_TYPE = U
NORAD_CAT_ID   = 67974
ELEMENT_SET_NO = 999
REV_AT_EPOCH   = 393
BSTAR          = .32268545E-3
MEAN_MOTION_DOT = .48201E-3
MEAN_MOTION_DDOT = 0

CCSDS_OMM_VERS = 2.0
CREATION_DATE  = 
ORIGINATOR     = 

OBJECT_NAME    = STARLINK-36883
OBJECT_ID      = 2026-038Q
CENTER_NAME    = EARTH
REF_FRAME      = TEME
TIME_SYSTEM    = UTC
MEAN_ELEMENT_THEORY = SGP/SGP4

EPOCH          = 2026-03-14T06:00:02.000160
MEAN_MOTION    = 15.75187781
ECCENTRICITY   = .00010451
INCLINATION    = 97.2784
RA_OF_ASC_NODE = 83.8207
ARG_OF_PERICENTER = 100.5777
MEAN_ANOMALY   = 47.2316

EPHEMERIS_TYPE = 0
CLASSIFICATION_TYPE = U
NORAD_CAT_ID   = 67975
ELEMENT_SET_NO = 999
REV_AT_EPOCH   = 393
BSTAR          = -.45309678E-4
MEAN_MOTION_DOT = -.6881E-4
MEAN_MOTION_DDOT = 0

CCSDS_OMM_VERS = 2.0
CREATION_DATE  = 
ORIGINATOR     = 

OBJECT_NAME    = STARLINK-36880
OBJECT_ID      = 2026-038R
CENTER_NAME    = EARTH
REF_FRAME      = TEME
TIME_SYSTEM    = UTC
MEAN_ELEMENT_THEORY = SGP/SGP4

EPOCH          = 2026-03-14T06:00:02.000160
MEAN_MOTION    = 15.72201192
ECCENTRICITY   = .00016832
INCLINATION    = 97.2788
RA_OF_ASC_NODE = 83.8113
ARG_OF_PERICENTER = 77.1469
MEAN_ANOMALY   = 45.4611

EPHEMERIS_TYPE = 0
CLASSIFICATION_TYPE = U
NORAD_CAT_ID   = 67976
ELEMENT_SET_NO = 999
REV_AT_EPOCH   = 393
BSTAR          = -.20576398E-1
MEAN_MOTION_DOT = -.2333805E-1
MEAN_MOTION_DDOT = 0

CCSDS_OMM_VERS = 2.0
CREATION_DATE  = 
ORIGINATOR     = 

OBJECT_NAME    = STARLINK-36904
OBJECT_ID      = 2026-038S
CENTER_NAME    = EARTH
REF_FRAME      = TEME
TIME_SYSTEM    = UTC
MEAN_ELEMENT_THEORY = SGP/SGP4

EPOCH          = 2026-03-14T06:00:02.000160
MEAN_MOTION    = 15.75218913
ECCENTRICITY   = .00005807
INCLINATION    = 97.2780
RA_OF_ASC_NODE = 83.8172
ARG_OF_PERICENTER = 90.0160
MEAN_ANOMALY   = 49.7889

EPHEMERIS_TYPE = 0
CLASSIFICATION_TYPE = U
NORAD_CAT_ID   = 67977
ELEMENT_SET_NO = 999
REV_AT_EPOCH   = 393
BSTAR          = -.43583005E-3
MEAN_MOTION_DOT = -.64722E-3
MEAN_MOTION_DDOT = 0

